[{"OBJECT_NAME":"STARLINK-30494","OBJECT_ID":"2023-151G","EPOCH":"2026-03-09T08:39:06.366240","MEAN_MOTION":15.28417441,"ECCENTRICITY":0.00011553,"INCLINATION":43.0027,"RA_OF_ASC_NODE":192.4566,"ARG_OF_PERICENTER":241.5536,"MEAN_ANOMALY":118.52,"EPHEMERIS_TYPE":0,"CLASSIFICATION_TYPE":"U","NORAD_CAT_ID":57970,"ELEMENT_SET_NO":999,"REV_AT_EPOCH":13740,"BSTAR":-3.569111e-5,"MEAN_MOTION_DOT":-1.272e-5,"MEAN_MOTION_DDOT":0},{"OBJECT_NAME":"STARLINK-31342","OBJECT_ID":"2024-044Q","EPOCH":"2026-03-09T19:15:48.623904","MEAN_MOTION":15.27566272,"ECCENTRICITY":7.647e-5,"INCLINATION":43.0028,"RA_OF_ASC_NODE":106.3237,"ARG_OF_PERICENTER":250.4263,"MEAN_ANOMALY":109.6507,"EPHEMERIS_TYPE":0,"CLASSIFICATION_TYPE":"U","NORAD_CAT_ID":59166,"ELEMENT_SET_NO":999,"REV_AT_EPOCH":11361,"BSTAR":-3.4448419e-5,"MEAN_MOTION_DOT":-1.209e-5,"MEAN_MOTION_DDOT":0}]
